[{"OBJECT_NAME":"SKYKRAFT-1C","OBJECT_ID":"2023-001BE","EPOCH":"2026-03-09T17:01:49.738944","MEAN_MOTION":15.24327539,"ECCENTRICITY":0.00119736,"INCLINATION":97.3326,"RA_OF_ASC_NODE":124.5476,"ARG_OF_PERICENTER":132.0782,"MEAN_ANOMALY":228.1477,"EPHEMERIS_TYPE":0,"CLASSIFICATION_TYPE":"U","NORAD_CAT_ID":55061,"ELEMENT_SET_NO":999,"REV_AT_EPOCH":17632,"BSTAR":0.00018809338,"MEAN_MOTION_DOT":4.538e-5,"MEAN_MOTION_DDOT":0},{"OBJECT_NAME":"STARLINK-34698","OBJECT_ID":"2025-259Z","EPOCH":"2026-03-09T22:14:30.459552","MEAN_MOTION":15.27574666,"ECCENTRICITY":0.00016072,"INCLINATION":42.9968,"RA_OF_ASC_NODE":273.3385,"ARG_OF_PERICENTER":242.2652,"MEAN_ANOMALY":117.8036,"EPHEMERIS_TYPE":0,"CLASSIFICATION_TYPE":"U","NORAD_CAT_ID":66445,"ELEMENT_SET_NO":999,"REV_AT_EPOCH":1941,"BSTAR":0.00091387955,"MEAN_MOTION_DOT":0.00024967,"MEAN_MOTION_DDOT":0}]
